GPS BIIR-2  (PRN 13)    
1 24876U 97035A   23177.29676175  .00000071  00000+0  00000+0 0  9990
2 24876  55.5760 141.0805 0069211  50.9576 309.6355  2.00564033189953
GPS BIIR-4  (PRN 20)    
1 26360U 00025A   23175.69095866 -.00000066  00000+0  00000+0 0  9992
2 26360  54.3697  63.5402 0040996 198.0806 169.5674  2.00575887169436
GPS BIIR-8  (PRN 16)    
1 27663U 03005A   23176.18772892 -.00000014  00000+0  00000+0 0  9999
2 27663  55.2807 258.2432 0131302  44.5739 302.8832  2.00570176149481
GPS BIIR-9  (PRN 21)    
1 27704U 03010A   23176.98742678 -.00000077  00000+0  00000+0 0  9997
2 27704  55.1106   8.2075 0248261 317.0996 104.9976  2.00571762148290
GPS BIIR-11 (PRN 19)    
1 28190U 04009A   23177.22250919 -.00000067  00000+0  00000+0 0  9995
2 28190  55.7471 319.2530 0093024 134.8349  36.4164  2.00569212141179
GPS BIIR-13 (PRN 02)    
1 28474U 04045A   23177.11013226 -.00000075  00000+0  00000+0 0  9995
2 28474  55.4372   8.5005 0161260 280.9069 222.0552  2.00577658136627
GPS BIIRM-1 (PRN 17)    
1 28874U 05038A   23177.54894725 -.00000066  00000+0  00000+0 0  9990
2 28874  55.7997 316.6898 0137230 279.2809 147.9133  2.00550856130033
GPS BIIRM-2 (PRN 31)    
1 29486U 06042A   23176.15969892  .00000084  00000+0  00000+0 0  9999
2 29486  54.6877 194.4770 0102062  30.1443  15.5208  2.00574221122724
GPS BIIRM-3 (PRN 12)    
1 29601U 06052A   23176.51553445 -.00000011  00000+0  00000+0 0  9993
2 29601  55.2992 257.1855 0085026  78.8516 282.1645  2.00573918121637
GPS BIIRM-4 (PRN 15)    
1 32260U 07047A   23177.32154039  .00000037  00000+0  00000+0 0  9996
2 32260  53.4397 125.0443 0148301  68.8968 292.6596  2.00555224115031
GPS BIIRM-5 (PRN 29)    
1 32384U 07062A   23176.63986646 -.00000066  00000+0  00000+0 0  9993
2 32384  55.9305 317.5365 0024619 144.1018 213.5759  2.00555094113760
GPS BIIRM-6 (PRN 07)    
1 32711U 08012A   23177.73533239  .00000104  00000+0  00000+0 0  9993
2 32711  54.4543 193.2616 0176246 235.1631 123.2124  2.00555574111962
GPS BIIRM-8 (PRN 05)    
1 35752U 09043A   23176.46334830 -.00000057  00000+0  00000+0 0  9999
2 35752  55.3723  70.5523 0058078  66.0908 111.6802  2.00562064101521
GPS BIIF-1  (PRN 25)    
1 36585U 10022A   23175.60579339 -.00000008  00000+0  00000+0 0  9999
2 36585  54.5956 252.4865 0108643  59.7081 335.0568  2.00558331 95750
GPS BIIF-2  (PRN 01)    
1 37753U 11036A   23177.18714348 -.00000073  00000+0  00000+0 0  9991
2 37753  56.7300  14.1844 0127237  55.4133 125.7705  2.00568069 87461
GPS BIIF-3  (PRN 24)    
1 38833U 12053A   23176.91918983  .00000096  00000+0  00000+0 0  9996
2 38833  53.5146 188.0698 0137981  50.8435 310.4111  2.00566193 78520
GPS BIIF-4  (PRN 27)    
1 39166U 13023A   23176.77977509 -.00000066  00000+0  00000+0 0  9995
2 39166  55.4165 312.9444 0114180  41.6841 319.1814  2.00564591 74065
GPS BIIF-5  (PRN 30)    
1 39533U 14008A   23175.28086904  .00000071  00000+0  00000+0 0  9997
2 39533  53.6020 193.6853 0066859 214.4173 145.1891  2.00574351 68394
GPS BIIF-6  (PRN 06)    
1 39741U 14026A   23176.55934170 -.00000076  00000+0  00000+0 0  9992
2 39741  56.6840  13.7315 0028732 313.9116  45.8923  2.00562397 66716
GPS BIIF-7  (PRN 09)    
1 40105U 14045A   23176.64937668  .00000052  00000+0  00000+0 0  9997
2 40105  54.7932 131.8972 0022155 113.2960 246.9153  2.00572965 65153
GPS BIIF-8  (PRN 03)    
1 40294U 14068A   23176.02698346 -.00000052  00000+0  00000+0 0  9991
2 40294  56.1155  73.2594 0047624  58.6715 301.8324  2.00567059 63362
GPS BIIF-9  (PRN 26)    
1 40534U 15013A   23175.66090732 -.00000005  00000+0  00000+0 0  9991
2 40534  53.4944 249.2639 0078272  25.0425 335.4056  2.00559114 60410
GPS BIIF-10 (PRN 08)    
1 40730U 15033A   23176.81910098 -.00000066  00000+0  00000+0 0  9992
2 40730  54.9062 311.5912 0084193  14.1045 346.1308  2.00559043 58202
GPS BIIF-11 (PRN 10)    
1 41019U 15062A   23177.87057249 -.00000053  00000+0  00000+0 0  9998
2 41019  56.1014  73.0358 0086944 221.6013 137.7717  2.00562292 56042
GPS BIIF-12 (PRN 32)    
1 41328U 16007A   23176.96336452  .00000054  00000+0  00000+0 0  9996
2 41328  55.0000 132.6461 0071380 235.0262 124.2811  2.00553404 54070
GPS BIII-1  (PRN 04)    
1 43873U 18109A   23176.31397889  .00000058  00000+0  00000+0 0  9992
2 43873  55.1762 135.1717 0024523 194.2213 309.2088  2.00565713 33203
GPS BIII-2  (PRN 18)    
1 44506U 19056A   23177.52577704 -.00000073  00000+0  00000+0 0  9996
2 44506  55.8072  14.2036 0033696 182.8165  16.2097  2.00564808 28279
GPS BIII-3  (PRN 23)    
1 45854U 20041A   23177.60852465 -.00000055  00000+0  00000+0 0  9998
2 45854  55.8222  71.4796 0033020 186.2292  15.9524  2.00565313 22245
GPS BIII-4  (PRN 14)    
1 46826U 20078A   23176.37744104 -.00000009  00000+0  00000+0 0  9990
2 46826  54.3454 254.9501 0033439 192.5304 176.2291  2.00562841 19685
GPS BIII-5  (PRN 11)    
1 48859U 21054A   23177.36573437 -.00000075  00000+0  00000+0 0  9995
2 48859  55.3222  16.0292 0010146 206.6714 335.5529  2.00553552 14940
GPS BIII-6  (PRN 28)    
1 55268U 23009A   23175.55952373  .00000080  00000+0  00000+0 0  9993
2 55268  55.0930 191.2281 0004132 100.0610 263.1699  2.00560483  3403
